STARLINK-1335_new
1 15581C 20025BC  21326.15140351  .00006030  00000-0  40408-3 0  3268
2 15581  53.0539 278.0648 0001901  69.1770 264.7131 15.06387947    11
STARLINK-1335_old
1 25581C 20025BC  21325.11550697  .00003008  00000-0  20145-3 0  3258
2 25581  53.0537 282.7151 0001962  69.5402  43.4907 15.06406560    19
